<?xml version="1.0" encoding="UTF-8"?>
<gpx xmlns="http://www.topografix.com/GPX/1/1" version="1.1" creator="cairn-test">
  <trk>
    <name>Loop Climb</name>
    <trkseg>
      <trkpt lat="37.0000" lon="-122.0000"><ele>1000</ele><time>2020-06-01T00:00:00Z</time></trkpt>
      <trkpt lat="37.0010" lon="-121.9990"><ele>1000</ele><time>2020-06-01T00:05:00Z</time></trkpt>
      <trkpt lat="37.0020" lon="-121.9980"><ele>1000</ele><time>2020-06-01T00:10:00Z</time></trkpt>
      <trkpt lat="37.0030" lon="-121.9970"><ele>1010</ele><time>2020-06-01T00:15:00Z</time></trkpt>
      <trkpt lat="37.0040" lon="-121.9960"><ele>1020</ele><time>2020-06-01T00:20:00Z</time></trkpt>
      <trkpt lat="37.0050" lon="-121.9950"><ele>1035</ele><time>2020-06-01T00:25:00Z</time></trkpt>
      <trkpt lat="37.0060" lon="-121.9940"><ele>1050</ele><time>2020-06-01T00:30:00Z</time></trkpt>
      <trkpt lat="37.0070" lon="-121.9930"><ele>1050</ele><time>2020-06-01T00:35:00Z</time></trkpt>
      <trkpt lat="37.0080" lon="-121.9920"><ele>1050</ele><time>2020-06-01T00:40:00Z</time></trkpt>
      <trkpt lat="37.0090" lon="-121.9910"><ele>1045</ele><time>2020-06-01T00:45:00Z</time></trkpt>
      <trkpt lat="37.0100" lon="-121.9900"><ele>1030</ele><time>2020-06-01T00:50:00Z</time></trkpt>
      <trkpt lat="37.0110" lon="-121.9890"><ele>1010</ele><time>2020-06-01T00:55:00Z</time></trkpt>
      <trkpt lat="37.0120" lon="-121.9880"><ele>1000</ele><time>2020-06-01T01:00:00Z</time></trkpt>
      <trkpt lat="37.0130" lon="-121.9870"><ele>1000</ele><time>2020-06-01T01:05:00Z</time></trkpt>
      <trkpt lat="37.0140" lon="-121.9860"><ele>1000</ele><time>2020-06-01T01:10:00Z</time></trkpt>
    </trkseg>
  </trk>
</gpx>
