<?xml version="1.0" encoding="UTF-8"?>
<kml xmlns="http://www.opengis.net/kml/2.2" xmlns:gx="http://www.google.com/kml/ext/2.2">
  <Document>
    <Placemark>
      <name>Summit Loop</name>
      <gx:Track>
        <when>2020-06-01T08:00:00Z</when>
        <when>2020-06-01T08:05:00Z</when>
        <when>2020-06-01T08:10:00Z</when>
        <gx:coord>-122.0 37.0 100</gx:coord>
        <gx:coord>-122.1 37.1 150</gx:coord>
        <gx:coord>-122.2 37.2 200</gx:coord>
      </gx:Track>
    </Placemark>
  </Document>
</kml>
